GPS BIIR-2  (PRN 13)    
1 24876U 97035A   25278.92579660  .00000080  00000+0  00000+0 0  9995
2 24876  55.8595 108.5211 0095800  56.6201 304.3706  2.00563067206859
GPS BIIR-4  (PRN 20)    
1 26360U 00025A   25279.03442881 -.00000066  00000+0  00000+0 0  9990
2 26360  55.0071  29.5760 0037576 235.9398 293.7592  2.00572941186173
GPS BIIR-5  (PRN 22)    
1 26407U 00040A   25278.26855043  .00000003  00000+0  00000+0 0  9991
2 26407  54.9113 225.2891 0129773 300.3773 236.3770  2.00567020184839
GPS BIIR-8  (PRN 16)    
1 27663U 03005A   25278.42329536  .00000003  00000+0  00000+0 0  9991
2 27663  54.9446 225.0932 0144316  50.8837  12.1990  2.00574554166200
GPS BIIR-11 (PRN 19)    
1 28190U 04009A   25278.31870881  .00000006  00000+0  00000+0 0  9997
2 28190  55.0448 285.9760 0107686 166.1378 342.9237  2.00563349157831
GPS BIIR-13 (PRN 02)    
1 28474U 04045A   25275.28636214 -.00000061  00000+0  00000+0 0  9997
2 28474  55.2736 335.2817 0168359 306.5269 231.8452  2.00566206153255
GPS BIIRM-1 (PRN 17)    
1 28874U 05038A   25279.09030044  .00000003  00000+0  00000+0 0  9991
2 28874  55.0898 283.4237 0133773 291.8161  75.2710  2.00552617146749
GPS BIIRM-2 (PRN 31)    
1 29486U 06042A   25278.41194235  .00000050  00000+0  00000+0 0  9997
2 29486  54.6863 161.4529 0106674  49.9254  90.0161  2.00556694139285
GPS BIIRM-3 (PRN 12)    
1 29601U 06052A   25278.14492260  .00000002  00000+0  00000+0 0  9993
2 29601  54.9896 224.1182 0085650  86.9865 273.9717  2.00569184138291
GPS BIIRM-4 (PRN 15)    
1 32260U 07047A   25278.44934850  .00000054  00000+0  00000+0 0  9999
2 32260  53.9057  90.5784 0164680  84.1086 277.8151  2.00567233131700
GPS BIIRM-5 (PRN 29)    
1 32384U 07062A   25278.51005793  .00000006  00000+0  00000+0 0  9993
2 32384  55.2394 284.3817 0032445 163.7700   9.1273  2.00573917130409
GPS BIIRM-6 (PRN 07)    
1 32711U 08012A   25278.86759440  .00000055  00000+0  00000+0 0  9990
2 32711  54.4674 160.0833 0200753 244.3543 113.6494  2.00562453128656
GPS BIIRM-8 (PRN 05)    
1 35752U 09043A   25278.31963285 -.00000052  00000+0  00000+0 0  9995
2 35752  56.0461  37.4801 0054085  82.0821 259.8741  2.00569589118248
GPS BIIF-1  (PRN 25)    
1 36585U 10022A   25277.16447182 -.00000001  00000+0  00000+0 0  9998
2 36585  54.3516 218.8498 0123132  64.3027 285.5016  2.00549458112454
GPS BIIF-3  (PRN 24)    
1 38833U 12053A   25279.04532983  .00000061  00000+0  00000+0 0  9990
2 38833  53.5457 154.0119 0172892  62.7610 299.0914  2.00564331 94346
GPS BIIF-4  (PRN 27)    
1 39166U 13023A   25278.41040660  .00000008  00000+0  00000+0 0  9995
2 39166  54.7093 279.3444 0134132  48.1607 312.9970  2.00565365 90774
GPS BIIF-5  (PRN 30)    
1 39533U 14008A   25278.90598025  .00000054  00000+0  00000+0 0  9995
2 39533  53.6208 159.6918 0078334 226.1910 133.2505  2.00570410 84587
GPS BIIF-6  (PRN 06)    
1 39741U 14026A   25279.18516477 -.00000061  00000+0  00000+0 0  9997
2 39741  56.6078 341.4055 0036702 316.8345  42.9473  2.00566038 83446
GPS BIIF-7  (PRN 09)    
1 40105U 14045A   25278.77705522  .00000068  00000+0  00000+0 0  9995
2 40105  55.1849  98.6098 0033176 117.7346 242.6621  2.00568359 80978
GPS BIIF-8  (PRN 03)    
1 40294U 14068A   25278.65148505 -.00000046  00000+0  00000+0 0  9995
2 40294  56.8099  40.7785 0061532  69.8819 290.7779  2.00560569 80100
GPS BIIF-9  (PRN 26)    
1 40534U 15013A   25278.28460600  .00000001  00000+0  00000+0 0  9995
2 40534  53.2139 214.7232 0103448  36.6903 324.0000  2.00566500 76713
GPS BIIF-10 (PRN 08)    
1 40730U 15033A   25278.94516111  .00000005  00000+0  00000+0 0  9991
2 40730  54.1880 277.5607 0106802  25.5191 335.0170  2.00568981 74892
GPS BIIF-11 (PRN 10)    
1 41019U 15062A   25278.50511101 -.00000046  00000+0  00000+0 0  9996
2 41019  56.7848  40.6403 0107996 228.3152 130.7593  2.00566953 72729
GPS BIIF-12 (PRN 32)    
1 41328U 16007A   25278.08824082  .00000073  00000+0  00000+0 0  9996
2 41328  55.3638  99.5811 0089181 242.5327 116.6204  2.00564292 70721
GPS BIII-1  (PRN 04)    
1 43873U 18109A   25278.96977213  .00000072  00000+0  00000+0 0  9999
2 43873  55.5259 102.2226 0035815 194.4835 337.3563  2.00574496 49975
GPS BIII-2  (PRN 18)    
1 44506U 19056A   25278.48618044 -.00000062  00000+0  00000+0 0  9996
2 44506  55.7458 341.2646 0057196 196.5994 241.0988  2.00564040 44968
GPS BIII-3  (PRN 23)    
1 45854U 20041A   25277.95878081 -.00000048  00000+0  00000+0 0  9993
2 45854  56.5001  38.8643 0058425 200.6108 161.1099  2.00563356 38927
GPS BIII-4  (PRN 14)    
1 46826U 20078A   25278.50190654  .00000002  00000+0  00000+0 0  9997
2 46826  54.0344 221.1095 0063104 203.5455 159.5404  2.00567066 36409
GPS BIII-5  (PRN 11)    
1 48859U 21054A   25273.71931440 -.00000078  00000+0  00000+0 0  9998
2 48859  55.2816 342.8884 0023643 228.9477 109.7031  2.00557460 31540
GPS BIII-6  (PRN 28)    
1 55268U 23009A   25277.43516926  .00000045  00000+0  00000+0 0  9996
2 55268  55.0963 158.5683 0003667 352.6229 190.2941  2.00561238 20110
GPS BIII-7  (PRN 01)    
1 62339U 24242A   25275.57961462 -.00000072  00000+0  00000+0 0  9996
2 62339  54.9445 344.6254 0008605 341.1019  17.5163  2.00566232  6085
GPS BIII-8  (PRN 21)    
1 64202U 25116A   25278.39241582 -.00000046  00000+0  00000+0 0  9996
2 64202  55.0571  41.4014 0002541 298.5377 122.1595  2.00562763  2767
